SatCatId,ObjectName,LaunchYear,OrbitalPeriod,LaunchMass,StatusCode,Inclination,Status,UcsData,OrbitClassEstimated,LaunchSiteCountry,Owner,UseType,Purpose,LaunchVehicleClass,TLE1,TLE2,MeanMotion,Eccentricity,OrbitClass
47134,STARLINK-1844,2020,94.38,260.0,P,53.06,Active,1,LEO,USA,USA,Commercial,Communications,Falcon,1 47134U 20088N   24272.89705111  .00135315  00000+0  51212-2 0  9996,2 47134  53.0574 139.1171 0005566 164.6728 195.4439 15.25933118212541,15.25933118,0.0005566,LEO
47135,STARLINK-1845,2020,95.59,260.0,+,53.05,Active,1,LEO,USA,USA,Commercial,Communications,Falcon,1 47135U 20088P   24272.95060074  .00020826  00000+0  14126-2 0  9999,2 47135  53.0529 136.2412 0001424  85.6805 274.4347 15.06407740212581,15.0640774,0.0001424,LEO
47136,STARLINK-1846,2020,95.59,260.0,+,53.05,Active,1,LEO,USA,USA,Commercial,Communications,Falcon,1 47136U 20088Q   24272.94969354  .00016951  00000+0  11542-2 0  9991,2 47136  53.0528 146.2479 0001368  91.0914 269.0231 15.06397774212446,15.06397774,0.0001368,LEO
47137,STARLINK-1849,2020,95.59,260.0,+,53.05,Active,1,LEO,USA,USA,Commercial,Communications,Falcon,1 47137U 20088R   24272.93216874  .00018322  00000+0  12454-2 0  9990,2 47137  53.0527 136.3253 0001479  91.5643 268.5516 15.06409946212583,15.06409946,0.0001479,LEO
47138,STARLINK-1850,2020,95.59,260.0,+,53.05,Active,1,LEO,USA,USA,Commercial,Communications,Falcon,1 47138U 20088S   24272.92990490  .00024704  00000+0  16706-2 0  9998,2 47138  53.0539 141.6548 0001226  77.7604 282.3522 15.06420694212513,15.06420694,0.0001226,LEO
47139,STARLINK-1852,2020,95.59,260.0,+,53.05,Active,1,LEO,USA,USA,Commercial,Communications,Falcon,1 47139U 20088T   24273.11326410  .00027545  00000+0  18587-2 0  9991,2 47139  53.0527 150.7138 0001240  95.5659 264.5472 15.06443870212697,15.0644387,0.000124,LEO
47141,STARLINK-1854,2020,95.59,260.0,+,53.05,Active,1,LEO,USA,USA,Commercial,Communications,Falcon,1 47141U 20088V   24272.90637233  .00021240  00000+0  14399-2 0  9991,2 47141  53.0534 136.4406 0001442  90.8702 269.2452 15.06415362212581,15.06415362,0.0001442,LEO
47143,STARLINK-1856,2020,95.59,260.0,+,53.05,Active,1,LEO,USA,USA,Commercial,Communications,Falcon,1 47143U 20088X   24272.88794620  .00020266  00000+0  13751-2 0  9992,2 47143  53.0525 136.5210 0001590  89.9977 270.1195 15.06410762212869,15.06410762,0.000159,LEO
47144,STARLINK-1857,2020,95.59,260.0,+,53.05,Active,1,LEO,USA,USA,Commercial,Communications,Falcon,1 47144U 20088Y   24273.00680873  .00017732  00000+0  12059-2 0  9996,2 47144  53.0527 125.9901 0001234  90.5598 269.5533 15.06413131212987,15.06413131,0.0001234,LEO
47147,STARLINK-1860,2020,94.79,260.0,P,53.05,Active,1,LEO,USA,USA,Commercial,Communications,Falcon,1 47147U 20088AB  24273.00001157  .00137880  00000+0  63371-2 0  9991,2 47147  53.0460 142.3092 0009514 140.2351 148.0862 15.19313042212765,15.19313042,0.0009514,LEO
47148,STARLINK-1861,2020,95.59,260.0,+,53.05,Active,1,LEO,USA,USA,Commercial,Communications,Falcon,1 47148U 20088AC  24272.93954147  .00020586  00000+0  13963-2 0  9995,2 47148  53.0528 136.2937 0001316  92.6779 267.4361 15.06414422212587,15.06414422,0.0001316,LEO
47149,STARLINK-1862,2020,95.59,260.0,+,53.05,Active,1,LEO,USA,USA,Commercial,Communications,Falcon,1 47149U 20088AD  24272.90175862  .00024701  00000+0  16705-2 0  9992,2 47149  53.0525 146.4620 0001328  89.8822 270.2319 15.06419342213174,15.06419342,0.0001328,LEO
47150,STARLINK-1863,2020,95.59,260.0,+,53.05,Active,1,LEO,USA,USA,Commercial,Communications,Falcon,1 47150U 20088AE  24272.89531162  .00023019  00000+0  15584-2 0  9996,2 47150  53.0535 136.4911 0001379  96.4396 263.6750 15.06419324212584,15.06419324,0.0001379,LEO
47151,STARLINK-1864,2020,95.59,260.0,+,53.06,Active,1,LEO,USA,USA,Commercial,Communications,Falcon,1 47151U 20088AF  24272.96072993  .00024686  00000+0  16694-2 0  9991,2 47151  53.0533 146.1977 0001363 105.6792 254.4348 15.06421044212447,15.06421044,0.0001363,LEO
47152,STARLINK-1866,2020,95.59,260.0,+,53.05,Active,1,LEO,USA,USA,Commercial,Communications,Falcon,1 47152U 20088AG  24272.94504562  .00024594  00000+0  16634-2 0  9994,2 47152  53.0531 146.2581 0001284  89.0543 271.0593 15.06418779212447,15.06418779,0.0001284,LEO
47153,STARLINK-1867,2020,95.59,260.0,+,53.05,Active,1,LEO,USA,USA,Commercial,Communications,Falcon,1 47153U 20088AH  24272.94372136  .00031017  00000+0  20905-2 0  9999,2 47153  53.0532 151.5164 0001532  87.2673 272.8491 15.06427570212372,15.0642757,0.0001532,LEO
47155,STARLINK-1869,2020,95.59,260.0,+,53.05,Active,1,LEO,USA,USA,Commercial,Communications,Falcon,1 47155U 20088AK  24272.95243782  .00033206  00000+0  22342-2 0  9995,2 47155  53.0534 156.2337 0001208  85.9421 274.1706 15.06457223212301,15.06457223,0.0001208,LEO
47157,STARLINK-1871,2020,95.59,260.0,+,53.05,Active,1,LEO,USA,USA,Commercial,Communications,Falcon,1 47157U 20088AM  24272.92387570  .00026944  00000+0  18195-2 0  9990,2 47157  53.0532 146.3621 0001248  90.7034 269.4098 15.06427255212443,15.06427255,0.0001248,LEO
47158,STARLINK-1873,2020,95.59,260.0,+,53.05,Active,1,LEO,USA,USA,Commercial,Communications,Falcon,1 47158U 20088AN  24273.14595240  .00017927  00000+0  12188-2 0  9998,2 47158  53.0526 135.3652 0001257  97.4919 262.6212 15.06416828212868,15.06416828,0.0001257,LEO
47161,STARLINK-1876,2020,95.59,260.0,+,53.05,Active,1,LEO,USA,USA,Commercial,Communications,Falcon,1 47161U 20088AR  24272.91373952  .00021229  00000+0  14392-2 0  9999,2 47161  53.0539 136.4089 0001442  83.4802 276.6351 15.06414523212582,15.06414523,0.0001442,LEO
47162,STARLINK-1877,2020,95.59,260.0,+,53.05,Active,1,LEO,USA,USA,Commercial,Communications,Falcon,1 47162U 20088AS  24272.90913579  .00006425  00000+0  44976-3 0  9997,2 47162  53.0532 146.4287 0001374  92.4302 267.6845 15.06404815212442,15.06404815,0.0001374,LEO
47163,STARLINK-1878,2020,95.59,260.0,+,53.05,Active,1,LEO,USA,USA,Commercial,Communications,Falcon,1 47163U 20088AT  24272.94139001  .00031067  00000+0  20941-2 0  9997,2 47163  53.0524 156.2838 0001643 102.7624 257.3548 15.06422055212550,15.06422055,0.0001643,LEO
47164,STARLINK-1879,2020,95.59,260.0,+,53.05,Active,1,LEO,USA,USA,Commercial,Communications,Falcon,1 47164U 20088AU  24272.99575075  .00022806  00000+0  15443-2 0  9990,2 47164  53.0543 126.0385 0001499 101.2108 258.9049 15.06416946212986,15.06416946,0.0001499,LEO
47165,STARLINK-1880,2020,95.59,260.0,+,53.05,Active,1,LEO,USA,USA,Commercial,Communications,Falcon,1 47165U 20088AV  24272.93493258  .00026464  00000+0  17878-2 0  9995,2 47165  53.0536 146.3145 0001327  85.0020 275.1120 15.06421540212448,15.0642154,0.0001327,LEO
47167,STARLINK-1884,2020,95.59,260.0,+,53.05,Active,1,LEO,USA,USA,Commercial,Communications,Falcon,1 47167U 20088AX  24272.92019362  .00029120  00000+0  19644-2 0  9991,2 47167  53.0533 146.3777 0001381  90.5609 269.5538 15.06426139212441,15.06426139,0.0001381,LEO
47170,STARLINK-1887,2020,95.59,260.0,+,53.05,Active,1,LEO,USA,USA,Commercial,Communications,Falcon,1 47170U 20088BA  24273.03814036  .00024257  00000+0  16406-2 0  9998,2 47170  53.0531 145.8490 0001324  94.3332 265.7808 15.06426240212756,15.0642624,0.0001324,LEO
47171,STARLINK-1888,2020,95.59,260.0,+,53.05,Active,1,LEO,USA,USA,Commercial,Communications,Falcon,1 47171U 20088BB  24272.99114967  .00013009  00000+0  89066-3 0  9995,2 47171  53.0531 136.0616 0001357  92.2076 267.9068 15.06399116212884,15.06399116,0.0001357,LEO
47173,STARLINK-1890,2020,95.59,260.0,+,53.05,Active,1,LEO,USA,USA,Commercial,Communications,Falcon,1 47173U 20088BD  24272.91651517  .00025786  00000+0  17430-2 0  9996,2 47173  53.0525 146.3924 0001635  94.9912 265.1263 15.06413971212739,15.06413971,0.0001635,LEO
47174,STARLINK-1891,2020,95.59,260.0,+,53.05,Active,1,LEO,USA,USA,Commercial,Communications,Falcon,1 47174U 20088BE  24272.92756835  .00027229  00000+0  18388-2 0  9994,2 47174  53.0534 146.3472 0001369  94.8816 265.2329 15.06421331212445,15.06421331,0.0001369,LEO
47175,STARLINK-1895,2020,95.59,260.0,+,53.05,Active,1,LEO,USA,USA,Commercial,Communications,Falcon,1 47175U 20088BF  24273.12458189  .00217386  00000+0  13977-1 0  9992,2 47175  53.0524 125.4583 0001177 123.6406 236.4695 15.06906259212756,15.06906259,0.0001177,LEO
47177,STARLINK-1907,2020,95.59,260.0,+,53.05,Active,1,LEO,USA,USA,Commercial,Communications,Falcon,1 47177U 20088BH  24273.04275653  .00031964  00000+0  21530-2 0  9999,2 47177  53.0534 135.8323 0001331  64.8389 295.2738 15.06435680212895,15.0643568,0.0001331,LEO
47178,STARLINK-1912,2020,95.59,260.0,+,53.05,Active,1,LEO,USA,USA,Commercial,Communications,Falcon,1 47178U 20088BJ  24272.95704549  .00023437  00000+0  15861-2 0  9996,2 47178  53.0537 146.2131 0001318  90.6861 269.4279 15.06423373212449,15.06423373,0.0001318,LEO
47179,STARLINK-1913,2020,95.59,260.0,+,53.05,Active,1,LEO,USA,USA,Commercial,Communications,Falcon,1 47179U 20088BK  24272.94506403  .00081144  00000+0  53909-2 0  9999,2 47179  53.0536 156.2654 0001869  88.7826 271.3377 15.06490727212550,15.06490727,0.0001869,LEO
47202,LUCAS (JDRS-1),2020,1436.14,-1.0,+,0.04,Active,1,GSO,Japan,Japan,Government,Communications,H2A,1 47202U 20089A   24273.07341174 -.00000248  00000+0  00000+0 0  9992,2 47202   0.0419  67.8350 0002477 107.1525 310.5277  1.00274939 14129,1.00274939,0.0002477,GEO
47226,FALCON EYE 2,2020,96.97,1180.0,+,97.85,Active,1,LEO,French Guiana,UAE,Military,Earth Observation,Soyuz,1 47226U 20090A   24273.15849679  .00004108  00000+0  48838-3 0  9995,2 47226  97.8468 345.8915 0001069 110.2600 249.8730 14.84948611207330,14.84948611,0.0001069,LEO
47227,GONETS-M 20,2020,115.86,280.0,+,82.51,Active,1,LEO,Russia,Russia/USSR,Commercial,Communications,Soyuz,1 47227U 20091A   24273.13780827  .00000049  00000+0  27952-3 0  9998,2 47227  82.5068 331.5753 0022086 107.5939 252.7556 12.42881481173431,12.42881481,0.0022086,LEO
